[{"OBJECT_NAME":"STARLINK-11379 [DTC]","OBJECT_ID":"2024-220B","EPOCH":"2026-03-09T21:43:11.189568","MEAN_MOTION":15.71149524,"ECCENTRICITY":0.00018644,"INCLINATION":43,"RA_OF_ASC_NODE":42.0789,"ARG_OF_PERICENTER":234.9073,"MEAN_ANOMALY":125.162,"EPHEMERIS_TYPE":0,"CLASSIFICATION_TYPE":"U","NORAD_CAT_ID":62089,"ELEMENT_SET_NO":999,"REV_AT_EPOCH":7498,"BSTAR":0.0030744075,"MEAN_MOTION_DOT":0.00420064,"MEAN_MOTION_DDOT":0},{"OBJECT_NAME":"LOGSATS","OBJECT_ID":"2025-009CJ","EPOCH":"2026-03-09T17:25:39.487008","MEAN_MOTION":15.72310294,"ECCENTRICITY":0.00053927,"INCLINATION":97.3907,"RA_OF_ASC_NODE":158.8419,"ARG_OF_PERICENTER":263.6729,"MEAN_ANOMALY":96.392,"EPHEMERIS_TYPE":0,"CLASSIFICATION_TYPE":"U","NORAD_CAT_ID":62689,"ELEMENT_SET_NO":999,"REV_AT_EPOCH":6421,"BSTAR":0.0019540727,"MEAN_MOTION_DOT":0.00266017,"MEAN_MOTION_DDOT":0}]
